CELESTIS-02             
1 25160U 98007D   12352.85161072 -.00000045  00000-0  38033-4 0   803
2 25160 107.9555 134.7871 0064788 295.8258  63.6206 14.21053352770217
CELESTIS-03             
1 26034U 99070C   12352.23315302  .00004485  00000-0  53021-3 0  6398
2 26034  98.2429  66.7475 0017103 193.6842 166.3910 14.85079561699681
AMC-14                  
1 32708U 08011A   12351.99378196  .00000149  00000-0  10000-3 0   364
2 32708  15.8802  90.9146 0045024 357.9931  29.2938  1.00269923 18731
